OBJECT_NAME,OBJECT_ID,EPOCH,MEAN_MOTION,ECCENTRICITY,INCLINATION,RA_OF_ASC_NODE,ARG_OF_PERICENTER,MEAN_ANOMALY,EPHEMERIS_TYPE,CLASSIFICATION_TYPE,NORAD_CAT_ID,ELEMENT_SET_NO,REV_AT_EPOCH,BSTAR,MEAN_MOTION_DOT,MEAN_MOTION_DDOT
STARLINK-32840,2025-063A,2026-06-13T16:29:56.662368,15.34388543,.00013291,53.1606,323.2803,49.5936,310.5183,0,U,63363,999,6948,.47661389E-3,.15755E-3,0
STARLINK-32543,2025-063B,2026-06-13T22:00:01.999584,15.34366306,.00011974,53.1605,322.4114,67.9996,14.3895,0,U,63364,999,581,.16438343E-2,.55515E-3,0
STARLINK-33741,2025-063C,2026-06-13T17:39:37.539360,15.34384546,.00012859,53.1594,323.5673,95.4133,264.7016,0,U,63365,999,6950,.46472937E-3,.1535E-3,0
STARLINK-33742,2025-063D,2026-06-13T17:11:52.320192,15.30199503,.00010649,53.1617,326.2840,88.0447,272.0675,0,U,63366,999,6941,.92072895E-3,.27009E-3,0
STARLINK-33734,2025-063E,2026-06-13T20:45:40.706208,15.30206762,.00011718,53.1610,335.7114,76.6322,283.4810,0,U,63367,999,6929,.1140327E-2,.33574E-3,0
STARLINK-33578,2025-063F,2026-06-13T17:36:35.730432,15.34384356,.00011594,53.1597,323.5542,86.5141,273.5994,0,U,63368,999,6944,.42056391E-3,.13852E-3,0
STARLINK-33626,2025-063G,2026-06-13T21:50:43.039968,15.34385263,.00013875,53.1608,322.5195,89.3436,270.7725,0,U,63369,999,6948,.9275091E-3,.31076E-3,0
STARLINK-33657,2025-063H,2026-06-13T15:56:44.491776,15.34389328,.00012706,53.1584,323.8286,79.0323,281.0822,0,U,63370,999,6944,.84914154E-3,.28412E-3,0
STARLINK-33648,2025-063J,2026-06-13T17:41:00.119616,15.31697784,.00012896,53.1603,326.4107,83.5480,276.5669,0,U,63371,999,6946,.64441447E-3,.19683E-3,0
STARLINK-33614,2025-063K,2026-06-13T22:00:01.999584,15.34372708,.00015146,53.1589,322.7648,67.8622,188.4644,0,U,63372,999,576,.16553681E-2,.55922E-3,0
STARLINK-33617,2025-063L,2026-06-13T22:00:01.999584,15.34367795,.0001365,53.1591,322.8284,79.8256,141.6288,0,U,63373,999,587,.1610914E-2,.54391E-3,0
STARLINK-33618,2025-063M,2026-06-13T16:39:01.619136,15.34391611,.00014239,53.1620,323.2986,96.6345,263.4820,0,U,63374,999,6950,.6264953E-3,.20844E-3,0
STARLINK-33621,2025-063N,2026-06-13T16:48:07.469280,15.34425438,.00014394,53.1616,323.3399,89.1961,270.9206,0,U,63375,999,6945,.79055255E-3,.2645E-3,0
STARLINK-33539,2025-063P,2026-06-13T17:48:13.087296,15.30189181,.00011087,53.1613,336.3662,60.9533,299.1579,0,U,63376,999,6927,.82743019E-3,.24219E-3,0
STARLINK-33634,2025-063Q,2026-06-13T17:07:18.873696,15.30196138,.00013976,53.1614,326.2603,91.1859,268.9302,0,U,63377,999,6946,.77092442E-3,.2254E-3,0
STARLINK-33640,2025-063R,2026-06-13T20:23:01.253184,15.30231397,.00011322,53.1608,325.6865,79.6817,280.4311,0,U,63378,999,6948,.66210772E-3,.19321E-3,0
STARLINK-33636,2025-063S,2026-06-13T17:16:14.249568,15.38015790,.00018636,53.1613,324.8924,31.3491,328.7624,0,U,63379,999,6943,.51066584E-3,.19038E-3,0
STARLINK-33653,2025-063T,2026-06-13T20:38:12.697152,15.30191102,.00012976,53.1602,325.7546,90.0009,270.1141,0,U,63380,999,6943,.96813907E-3,.28416E-3,0
STARLINK-33643,2025-063U,2026-06-13T17:22:30.817920,15.30198118,.00010731,53.1607,326.3242,73.0954,287.0164,0,U,63381,999,6946,.74909523E-3,.21891E-3,0
STARLINK-33748,2025-063W,2026-06-13T19:07:13.928736,15.30187964,.00012574,53.1614,336.7193,78.1663,281.9479,0,U,63383,999,6932,.67501276E-3,.19678E-3,0
STARLINK-33658,2025-063X,2026-06-13T17:33:33.819552,15.34394127,.00010441,53.1588,323.5317,81.7228,278.3893,0,U,63384,999,6950,.10170644E-2,.34137E-3,0
STARLINK-33616,2025-063Y,2026-06-13T19:04:11.762112,15.30189842,.00013202,53.1611,336.7139,94.2999,265.8153,0,U,63385,999,6927,.58937929E-3,.17131E-3,0
STARLINK-33571,2025-063Z,2026-06-13T18:49:16.862016,15.34392491,.00010696,53.1598,335.2041,94.9772,265.1352,0,U,63386,999,6929,.92273467E-3,.30921E-3,0
STARLINK-33533,2025-063AA,2026-06-13T22:08:53.570400,15.34390505,.0001186,53.1588,322.5954,84.8486,275.2652,0,U,63387,999,6948,.10556186E-2,.35447E-3,0
STARLINK-33629,2025-063AB,2026-06-13T21:59:48.369120,15.34394880,.00012745,53.1602,322.5533,88.0842,272.0306,0,U,63388,999,6953,.8061158E-3,.26953E-3,0
STARLINK-33656,2025-063AC,2026-06-13T18:01:02.402400,15.31657248,.0001109,53.1596,325.7836,63.1152,296.9962,0,U,63389,999,6947,-.25500325E-3,-.8259E-4,0
STARLINK-33531,2025-065A,2026-06-13T15:06:44.877312,15.27585846,.0001542,43.0009,285.1827,111.2097,248.8920,0,U,63399,999,6751,.74395E-3,.2027E-3,0
STARLINK-33652,2025-065B,2026-06-13T14:29:44.722176,15.27567335,.0001284,43.0009,284.9911,252.7040,107.3671,0,U,63400,999,6751,.96471E-3,.26369E-3,0
STARLINK-33707,2025-065C,2026-06-13T00:53:46.190688,15.27599102,.00022342,42.9980,288.4815,277.2683,82.7915,0,U,63401,999,6742,.69980212E-3,.19056E-3,0
STARLINK-33668,2025-065D,2026-06-13T15:27:05.540832,15.27596018,.0000116,42.9997,285.2898,88.8802,271.2063,0,U,63402,999,6751,.90938E-3,.24859E-3,0
STARLINK-33676,2025-065E,2026-06-13T14:59:21.385248,15.27577703,.0002098,42.9980,285.1428,273.1750,86.8861,0,U,63403,999,6751,.68166E-3,.18542E-3,0
STARLINK-33711,2025-065F,2026-06-13T14:27:52.928352,15.27597102,.0004209,43.0020,284.9834,276.7280,83.3093,0,U,63404,999,6751,.82561E-3,.22542E-3,0
STARLINK-33708,2025-065G,2026-06-13T15:04:53.258880,15.27637729,.0001449,42.9966,285.1672,128.6247,231.4735,0,U,63405,999,6751,.11254E-2,.30891E-3,0
STARLINK-33690,2025-065H,2026-06-13T14:21:10.668096,15.27589159,.0001187,43.0010,281.4876,128.6380,231.4578,0,U,63406,999,6755,.65684E-3,.17862E-3,0
STARLINK-33694,2025-065J,2026-06-13T14:53:47.456160,15.27601186,.0000395,43.0060,285.1099,132.1530,227.9355,0,U,63407,999,6751,.115E-2,.31538E-3,0
STARLINK-33692,2025-065K,2026-06-11T16:00:01.999584,15.27562927,.00017714,43.0028,300.1742,282.9477,241.0643,0,U,63408,999,587,.32184198E-3,.86E-4,0
STARLINK-33693,2025-065L,2026-06-13T15:19:41.551104,15.27586492,.0005057,42.9942,285.2429,288.7608,71.2695,0,U,63409,999,6751,.74664E-3,.2035E-3,0
STARLINK-33677,2025-065M,2026-06-13T15:08:35.656800,15.27582906,.0001502,43.0055,285.1834,108.0764,252.0251,0,U,63410,999,6751,.78324E-3,.21355E-3,0
STARLINK-33647,2025-065N,2026-06-12T02:37:44.968800,15.27599421,.00018249,42.9999,301.3348,259.8961,100.1685,0,U,63411,999,6719,.84331379E-3,.23031E-3,0
STARLINK-33645,2025-065P,2026-06-13T14:56:47.302080,15.27592552,.0004852,42.9981,288.5154,280.7540,79.2765,0,U,63412,999,6747,.84795E-3,.2316E-3,0
STARLINK-33670,2025-065Q,2026-06-13T19:45:30.010464,15.27601266,.00002784,42.9973,284.0127,157.4437,202.6426,0,U,63413,999,6754,.89426416E-3,.24444E-3,0
STARLINK-33644,2025-065R,2026-06-13T14:35:28.957920,15.27596281,.0002723,43.0008,285.8282,275.4132,84.6409,0,U,63414,999,6750,.71219E-3,.19398E-3,0
STARLINK-33664,2025-065S,2026-06-13T15:14:08.142144,15.27575243,.0000988,43.0046,285.1758,301.7360,58.3395,0,U,63415,999,6751,.88058E-3,.24045E-3,0
STARLINK-33649,2025-065T,2026-06-13T14:55:37.200576,15.27587086,.0001362,43.0017,285.0618,279.4356,80.6342,0,U,63416,999,6751,.63666E-3,.17302E-3,0
STARLINK-33535,2025-065U,2026-06-13T19:54:44.640576,15.27623880,.00029215,43.0031,284.0312,278.5131,81.5390,0,U,63417,999,6754,.71430709E-3,.19473E-3,0
STARLINK-33703,2025-065V,2026-06-13T01:34:27.383808,15.27585416,.00041711,43.0082,288.6342,267.0328,93.0046,0,U,63418,999,6742,.95199846E-3,.26036E-3,0
STARLINK-33709,2025-065W,2026-06-13T01:39:58.818528,15.27588486,.00063359,43.0061,288.6651,265.5297,94.4831,0,U,63419,999,6742,.7429264E-3,.20252E-3,0
STARLINK-33698,2025-065X,2026-06-13T14:44:31.113600,15.27588387,.0003369,43.0067,285.0027,110.3507,249.7707,0,U,63420,999,6751,.74549E-3,.20315E-3,0
STARLINK-33606,2025-065Y,2026-06-13T15:10:27.574176,15.27559855,.0003131,42.9926,285.1376,117.6144,242.5026,0,U,63421,999,6751,.98725E-3,.2699E-3,0
STARLINK-33686,2025-065Z,2026-06-13T15:25:13.579392,15.27590829,.0001044,43.0058,285.2183,261.7838,98.2895,0,U,63422,999,6751,.45262E-3,.12218E-3,0
STARLINK-33675,2025-065AA,2026-06-13T14:38:58.261056,15.27592491,.0001265,43.0113,284.9824,116.9833,243.1148,0,U,63423,999,6751,.75829E-3,.2067E-3,0
STARLINK-33655,2025-065AB,2026-06-13T14:24:22.603104,15.27591897,.0001462,43.0048,285.7557,268.4580,91.6104,0,U,63424,999,6750,.71274E-3,.19409E-3,0
STARLINK-33608,2025-065AC,2026-06-13T18:29:50.261568,15.27581670,.00009918,43.0020,284.4458,263.0074,97.0665,0,U,63425,999,6753,.61409933E-3,.16676E-3,0
STARLINK-33615,2025-065AD,2026-06-13T19:01:18.174144,15.27593036,.00003951,43.0021,284.6235,319.4723,40.6099,0,U,63426,999,6753,.9426218E-3,.25778E-3,0
STARLINK-33682,2025-069A,2026-06-13T22:43:09.650208,15.49375811,.00008802,53.1612,51.0018,40.5098,319.5976,0,U,63433,999,6820,.12692187E-2,.70951E-3,0
STARLINK-33710,2025-069B,2026-06-13T23:34:01.863264,15.49337198,.00012522,53.1603,50.5075,82.7953,277.3198,0,U,63434,999,6821,.91521598E-3,.50835E-3,0
STARLINK-33733,2025-069C,2026-06-13T22:04:19.082784,15.49327353,.00013197,53.1600,50.8326,117.2119,242.9025,0,U,63435,999,6820,.83234248E-3,.46147E-3,0
STARLINK-33638,2025-069D,2026-06-13T22:03:13.245120,15.49340885,.00008971,53.1597,50.8250,125.6570,234.4522,0,U,63436,999,6820,.90074941E-3,.50025E-3,0
STARLINK-33726,2025-069E,2026-06-13T23:15:11.092032,15.49324665,.00010878,53.1600,50.4286,104.3051,255.8079,0,U,63437,999,6816,.13472368E-2,.75246E-3,0
STARLINK-33681,2025-069F,2026-06-13T21:45:38.572416,15.52883442,.00218165,53.1601,50.7531,248.1607,111.7083,0,U,63438,999,6819,.36692933E-1,.2645804E-1,0
STARLINK-33730,2025-069G,2026-06-13T22:00:01.999584,15.49279566,.00012178,53.1599,51.0723,81.9249,147.4845,0,U,63439,999,590,.38619871E-3,.21066E-3,0
STARLINK-33743,2025-069H,2026-06-13T22:00:01.999584,15.49283987,.00008285,53.1597,51.3241,98.6517,2.9206,0,U,63440,999,590,.27817409E-3,.15039E-3,0
STARLINK-33715,2025-069J,2026-06-13T23:10:37.204896,15.49340592,.00007552,53.1595,50.3988,86.1728,273.9368,0,U,63441,999,6821,.73924776E-3,.40927E-3,0
STARLINK-33762,2025-069K,2026-06-11T06:09:47.619360,15.49333078,.000187,53.1608,63.3615,151.2144,208.8969,0,U,63442,999,6779,.89581E-3,.49734E-3,0
